{"type": "FeatureCollection", "features": [{"type": "Feature", "properties": {"norad_id": 32275, "name": "COSMOS 2433 (720)", "group": "glo-ops", "lat": -65.32114607191812, "lon": -138.41266170367896, "alt_km": 19123.233226670614, "timestamp": "2025-12-20T22:39:10.888367+00:00", "meta": {"OBJECT_NAME": "COSMOS 2433 (720)", "OBJECT_ID": "2007-052A", "EPOCH": "2025-12-19T04:33:13.000320", "MEAN_MOTION": 2.13104199, "ECCENTRICITY": 0.0005237, "INCLINATION": 65.6796, "RA_OF_ASC_NODE": 321.9886, "ARG_OF_PERICENTER": 255.1824, "MEAN_ANOMALY": 104.7517, "EPHEMERIS_TYPE": 0, "CLASSIFICATION_TYPE": "U", "NORAD_CAT_ID": 32275, "ELEMENT_SET_NO": 999, "REV_AT_EPOCH": 14122, "BSTAR": 0, "MEAN_MOTION_DOT": -5.9e-07, "MEAN_MOTION_DDOT": 0}, "tle": {"line1": "1 32275U 07052A   25353.18973380 -.00000059  00000+0  00000+0 0  9993", "line2": "2 32275  65.6796 321.9886 0005237 255.1824 104.7517  2.13104199141226"}}, "geometry": {"type": "Point", "coordinates": [-138.41266170367896, -65.32114607191812]}}, {"type": "Feature", "properties": {"norad_id": 32276, "name": "COSMOS 2432 (719)", "group": "glo-ops", "lat": -27.140795214865683, "lon": 155.42659880789896, "alt_km": 19140.568651407586, "timestamp": "2025-12-20T22:39:10.888389+00:00", "meta": {"OBJECT_NAME": "COSMOS 2432 (719)", "OBJECT_ID": "2007-052B", "EPOCH": "2025-12-20T10:16:04.130976", "MEAN_MOTION": 2.1310343, "ECCENTRICITY": 0.00113416, "INCLINATION": 65.6947, "RA_OF_ASC_NODE": 322.0715, "ARG_OF_PERICENTER": 314.1043, "MEAN_ANOMALY": 220.0986, "EPHEMERIS_TYPE": 0, "CLASSIFICATION_TYPE": "U", "NORAD_CAT_ID": 32276, "ELEMENT_SET_NO": 999, "REV_AT_EPOCH": 14127, "BSTAR": 0, "MEAN_MOTION_DOT": -5.2e-07, "MEAN_MOTION_DDOT": 0}, "tle": {"line1": "1 32276U 07052B   25354.42782559 -.00000052  00000+0  00000+0 0  9991", "line2": "2 32276  65.6947 322.0715 0011341 314.1043 220.0986  2.13103430141274"}}, "geometry": {"type": "Point", "coordinates": [155.42659880789896, -27.140795214865683]}}, {"type": "Feature", "properties": {"norad_id": 32393, "name": "COSMOS 2434 (721)", "group": "glo-ops", "lat": 21.236537091166316, "lon": 7.146300078000915, "alt_km": 19126.476524264563, "timestamp": "2025-12-20T22:39:10.888402+00:00", "meta": {"OBJECT_NAME": "COSMOS 2434 (721)", "OBJECT_ID": "2007-065A", "EPOCH": "2025-12-20T12:03:15.367680", "MEAN_MOTION": 2.13101459, "ECCENTRICITY": 0.00047811, "INCLINATION": 64.3153, "RA_OF_ASC_NODE": 197.9412, "ARG_OF_PERICENTER": 71.786, "MEAN_ANOMALY": 105.6785, "EPHEMERIS_TYPE": 0, "CLASSIFICATION_TYPE": "U", "NORAD_CAT_ID": 32393, "ELEMENT_SET_NO": 999, "REV_AT_EPOCH": 13996, "BSTAR": 0, "MEAN_MOTION_DOT": 1e-06, "MEAN_MOTION_DDOT": 0}, "tle": {"line1": "1 32393U 07065A   25354.50226120  .00000100  00000+0  00000+0 0  9994", "line2": "2 32393  64.3153 197.9412 0004781  71.7860 105.6785  2.13101459139962"}}, "geometry": {"type": "Point", "coordinates": [7.146300078000915, 21.236537091166316]}}, {"type": "Feature", "properties": {"norad_id": 32395, "name": "COSMOS 2436 (723)", "group": "glo-ops", "lat": -58.400648088473474, "lon": 146.52067511558297, "alt_km": 19129.041889432494, "timestamp": "2025-12-20T22:39:10.888414+00:00", "meta": {"OBJECT_NAME": "COSMOS 2436 (723)", "OBJECT_ID": "2007-065C", "EPOCH": "2025-12-20T08:05:38.789664", "MEAN_MOTION": 2.13100373, "ECCENTRICITY": 0.00177856, "INCLINATION": 64.3241, "RA_OF_ASC_NODE": 198.0173, "ARG_OF_PERICENTER": 9.8756, "MEAN_ANOMALY": 174.0477, "EPHEMERIS_TYPE": 0, "CLASSIFICATION_TYPE": "U", "NORAD_CAT_ID": 32395, "ELEMENT_SET_NO": 999, "REV_AT_EPOCH": 13991, "BSTAR": 0, "MEAN_MOTION_DOT": 1.01e-06, "MEAN_MOTION_DDOT": 0}, "tle": {"line1": "1 32395U 07065C   25354.33725451  .00000101  00000+0  00000+0 0  9999", "line2": "2 32395  64.3241 198.0173 0017785   9.8756 174.0477  2.13100373139919"}}, "geometry": {"type": "Point", "coordinates": [146.52067511558297, -58.400648088473474]}}, {"type": "Feature", "properties": {"norad_id": 36111, "name": "COSMOS 2456 (730)", "group": "glo-ops", "lat": -41.18642208845046, "lon": 52.90695148866371, "alt_km": 19126.798448515256, "timestamp": "2025-12-20T22:39:10.888424+00:00", "meta": {"OBJECT_NAME": "COSMOS 2456 (730)", "OBJECT_ID": "2009-070A", "EPOCH": "2025-12-20T03:13:18.516576", "MEAN_MOTION": 2.13103685, "ECCENTRICITY": 0.00033011, "INCLINATION": 64.904, "RA_OF_ASC_NODE": 77.0852, "ARG_OF_PERICENTER": 296.9564, "MEAN_ANOMALY": 115.2996, "EPHEMERIS_TYPE": 0, "CLASSIFICATION_TYPE": "U", "NORAD_CAT_ID": 36111, "ELEMENT_SET_NO": 999, "REV_AT_EPOCH": 12461, "BSTAR": 0, "MEAN_MOTION_DOT": -2.2e-07, "MEAN_MOTION_DDOT": 0}, "tle": {"line1": "1 36111U 09070A   25354.13424209 -.00000022  00000+0  00000+0 0  9995", "line2": "2 36111  64.9040  77.0852 0003301 296.9564 115.2996  2.13103685124610"}}, "geometry": {"type": "Point", "coordinates": [52.90695148866371, -41.18642208845046]}}, {"type": "Feature", "properties": {"norad_id": 36112, "name": "COSMOS 2457 (733)", "group": "glo-ops", "lat": 63.85546918925507, "lon": 149.41399744803846, "alt_km": 19120.838483522613, "timestamp": "2025-12-20T22:39:10.888435+00:00", "meta": {"OBJECT_NAME": "COSMOS 2457 (733)", "OBJECT_ID": "2009-070B", "EPOCH": "2025-12-19T12:47:22.832160", "MEAN_MOTION": 2.13101086, "ECCENTRICITY": 0.0004579, "INCLINATION": 64.8894, "RA_OF_ASC_NODE": 76.9529, "ARG_OF_PERICENTER": 161.1215, "MEAN_ANOMALY": 278.8833, "EPHEMERIS_TYPE": 0, "CLASSIFICATION_TYPE": "U", "NORAD_CAT_ID": 36112, "ELEMENT_SET_NO": 999, "REV_AT_EPOCH": 12460, "BSTAR": 0, "MEAN_MOTION_DOT": -2.8e-07, "MEAN_MOTION_DDOT": 0}, "tle": {"line1": "1 36112U 09070B   25353.53290315 -.00000028  00000+0  00000+0 0  9994", "line2": "2 36112  64.8894  76.9529 0004579 161.1215 278.8833  2.13101086124608"}}, "geometry": {"type": "Point", "coordinates": [149.41399744803846, 63.85546918925507]}}, {"type": "Feature", "properties": {"norad_id": 36402, "name": "COSMOS 2460 (732)", "group": "glo-ops", "lat": 64.35377377720056, "lon": 31.963967547477893, "alt_km": 19128.855836639977, "timestamp": "2025-12-20T22:39:10.888446+00:00", "meta": {"OBJECT_NAME": "COSMOS 2460 (732)", "OBJECT_ID": "2010-007C", "EPOCH": "2025-12-19T13:42:43.098624", "MEAN_MOTION": 2.131063, "ECCENTRICITY": 0.0002543, "INCLINATION": 65.526, "RA_OF_ASC_NODE": 320.5423, "ARG_OF_PERICENTER": 279.9868, "MEAN_ANOMALY": 189.087, "EPHEMERIS_TYPE": 0, "CLASSIFICATION_TYPE": "U", "NORAD_CAT_ID": 36402, "ELEMENT_SET_NO": 999, "REV_AT_EPOCH": 12290, "BSTAR": 0, "MEAN_MOTION_DOT": -5.7e-07, "MEAN_MOTION_DDOT": 0}, "tle": {"line1": "1 36402U 10007C   25353.57133216 -.00000057  00000+0  00000+0 0  9990", "line2": "2 36402  65.5260 320.5423 0002543 279.9868 189.0870  2.13106300122906"}}, "geometry": {"type": "Point", "coordinates": [31.963967547477893, 64.35377377720056]}}, {"type": "Feature", "properties": {"norad_id": 37867, "name": "COSMOS 2476 (744)", "group": "glo-ops", "lat": -37.12860322718741, "lon": -80.60887841249394, "alt_km": 19073.984368410704, "timestamp": "2025-12-20T22:39:10.888456+00:00", "meta": {"OBJECT_NAME": "COSMOS 2476 (744)", "OBJECT_ID": "2011-064A", "EPOCH": "2025-12-19T06:05:26.552256", "MEAN_MOTION": 2.13103916, "ECCENTRICITY": 0.0024321, "INCLINATION": 65.1662, "RA_OF_ASC_NODE": 78.9509, "ARG_OF_PERICENTER": 234.6548, "MEAN_ANOMALY": 130.4776, "EPHEMERIS_TYPE": 0, "CLASSIFICATION_TYPE": "U", "NORAD_CAT_ID": 37867, "ELEMENT_SET_NO": 999, "REV_AT_EPOCH": 10993, "BSTAR": 0, "MEAN_MOTION_DOT": -3e-07, "MEAN_MOTION_DDOT": 0}, "tle": {"line1": "1 37867U 11064A   25353.25377954 -.00000030  00000+0  00000+0 0  9995", "line2": "2 37867  65.1662  78.9509 0024321 234.6548 130.4776  2.13103916109937"}}, "geometry": {"type": "Point", "coordinates": [-80.60887841249394, -37.12860322718741]}}, {"type": "Feature", "properties": {"norad_id": 37868, "name": "COSMOS 2477 (745)", "group": "glo-ops", "lat": 37.95458300234592, "lon": 100.11189796668688, "alt_km": 19178.41600284547, "timestamp": "2025-12-20T22:39:10.888466+00:00", "meta": {"OBJECT_NAME": "COSMOS 2477 (745)", "OBJECT_ID": "2011-064B", "EPOCH": "2025-12-19T13:37:36.499584", "MEAN_MOTION": 2.13102956, "ECCENTRICITY": 0.0021226, "INCLINATION": 65.1727, "RA_OF_ASC_NODE": 79.0178, "ARG_OF_PERICENTER": 234.8822, "MEAN_ANOMALY": 192.052, "EPHEMERIS_TYPE": 0, "CLASSIFICATION_TYPE": "U", "NORAD_CAT_ID": 37868, "ELEMENT_SET_NO": 999, "REV_AT_EPOCH": 10993, "BSTAR": 0, "MEAN_MOTION_DOT": -2.7e-07, "MEAN_MOTION_DDOT": 0}, "tle": {"line1": "1 37868U 11064B   25353.56778356 -.00000027  00000+0  00000+0 0  9997", "line2": "2 37868  65.1727  79.0178 0021226 234.8822 192.0520  2.13102956109936"}}, "geometry": {"type": "Point", "coordinates": [100.11189796668688, 37.95458300234592]}}, {"type": "Feature", "properties": {"norad_id": 37869, "name": "COSMOS 2475 (743)", "group": "glo-ops", "lat": -1.105329378907609, "lon": 78.4938161201674, "alt_km": 19153.6104975615, "timestamp": "2025-12-20T22:39:10.888477+00:00", "meta": {"OBJECT_NAME": "COSMOS 2475 (743)", "OBJECT_ID": "2011-064C", "EPOCH": "2025-12-19T14:11:24.597888", "MEAN_MOTION": 2.13101629, "ECCENTRICITY": 0.0026449, "INCLINATION": 65.1796, "RA_OF_ASC_NODE": 79.0372, "ARG_OF_PERICENTER": 248.8375, "MEAN_ANOMALY": 152.0175, "EPHEMERIS_TYPE": 0, "CLASSIFICATION_TYPE": "U", "NORAD_CAT_ID": 37869, "ELEMENT_SET_NO": 999, "REV_AT_EPOCH": 10994, "BSTAR": 0, "MEAN_MOTION_DOT": -2.6e-07, "MEAN_MOTION_DDOT": 0}, "tle": {"line1": "1 37869U 11064C   25353.59125692 -.00000026  00000+0  00000+0 0  9999", "line2": "2 37869  65.1796  79.0372 0026449 248.8375 152.0175  2.13101629109948"}}, "geometry": {"type": "Point", "coordinates": [78.4938161201674, -1.105329378907609]}}]}